{
    "links": {
        "self": "http://www.neowsapp.com/rest/v1/neo/3842681?api_key=iIulBulltgU6a56xZRHN4H3l9WmuAYTsLGpBGhQ2"
    },
    "id": "3842681",
    "neo_reference_id": "3842681",
    "name": "(2019 KM5)",
    "designation": "2019 KM5",
    "nasa_jpl_url": "http://ssd.jpl.nasa.gov/sbdb.cgi?sstr=3842681",
    "absolute_magnitude_h": 25.5,
    "estimated_diameter": {
        "kilometers": {
            "estimated_diameter_min": 0.0211132445,
            "estimated_diameter_max": 0.0472106499
        },
        "meters": {
            "estimated_diameter_min": 21.113244479,
            "estimated_diameter_max": 47.2106498806
        },
        "miles": {
            "estimated_diameter_min": 0.0131191578,
            "estimated_diameter_max": 0.0293353287
        },
        "feet": {
            "estimated_diameter_min": 69.2691770164,
            "estimated_diameter_max": 154.8905885541
        }
    },
    "is_potentially_hazardous_asteroid": false,
    "close_approach_data": [
        {
            "close_approach_date": "2019-06-19",
            "close_approach_date_full": "2019-Jun-19 23:06",
            "epoch_date_close_approach": 1560985560000,
            "relative_velocity": {
                "kilometers_per_second": "3.208684614",
                "kilometers_per_hour": "11551.2646102631",
                "miles_per_hour": "7177.5066129715"
            },
            "miss_distance": {
                "astronomical": "0.1415196431",
                "lunar": "55.0511411659",
                "kilometers": "21171037.170920197",
                "miles": "13155072.4891928386"
            },
            "orbiting_body": "Earth"
        }
    ],
    "orbital_data": {
        "orbit_id": "1",
        "orbit_determination_date": "2019-06-03 09:12:04",
        "first_observation_date": "2019-05-30",
        "last_observation_date": "2019-06-01",
        "data_arc_in_days": 2,
        "observations_used": 10,
        "orbit_uncertainty": "9",
        "minimum_orbit_intersection": ".139846",
        "jupiter_tisserand_invariant": "3.946",
        "epoch_osculation": "2458635.5",
        "eccentricity": ".368651351388516",
        "semi_major_axis": "1.830124397509226",
        "inclination": "1.220629080824999",
        "ascending_node_longitude": "121.185284596863",
        "orbital_period": "904.3141843101345",
        "perihelion_distance": "1.155446565158356",
        "perihelion_argument": "145.4380613249717",
        "aphelion_distance": "2.504802229860096",
        "perihelion_time": "2458654.067413274197",
        "mean_anomaly": "352.6084662889479",
        "mean_motion": ".3980917321059492",
        "equinox": "J2000",
        "orbit_class": {
            "orbit_class_type": "AMO",
            "orbit_class_description": "Near-Earth asteroid orbits similar to that of 1221 Amor",
            "orbit_class_range": "1.017 AU < q (perihelion) < 1.3 AU"
        }
    },
    "is_sentry_object": false
}